ONEWEB-0427             
1 50499U 21132AG  26201.05549556  .00000014  00000+0  36627-5 0  9999
2 50499  87.9203 328.9008 0001802  93.3943 266.7395 13.18686815225947
ONEWEB-0429             
1 50500U 21132AH  26200.89024104 -.00000120  00000+0 -33662-3 0  9994
2 50500  87.9196 328.9552 0001968 103.4451 256.6900 13.18685057225896
ONEWEB-0430             
1 50501U 21132AJ  26200.80255812 -.00000327  00000+0 -86346-3 0  9994
2 50501  87.9195 328.9715 0002162 103.2444 256.8930 13.18685026225929
ONEWEB-0432             
1 50502U 21132AK  26201.31671384  .00000099  00000+0  21723-3 0  9990
2 50502  87.9201 328.8561 0002341  95.8813 264.2586 13.18686452225947
ONEWEB-0440             
1 50503U 21132AL  26201.27805927 -.00000053  00000+0 -16782-3 0  9999
2 50503  87.9204 328.8753 0001795 109.4081 250.7246 13.18685876225936
ONEWEB-0450             
1 50504U 21132AM  26200.89207118 -.00000001  00000+0 -34315-4 0  9991
2 50504  87.9196 328.9536 0002050 104.5586 255.5774 13.18686705225917
ONEWEB-0410             
1 51622U 22012A   26201.17356887 -.00000163  00000+0 -45380-3 0  9993
2 51622  87.9162 359.2986 0001431  49.1689 310.9566 13.17647551218044
ONEWEB-0411             
1 51623U 22012B   26201.22884288 -.00000120  00000+0 -38111-3 0  9998
2 51623  87.8821  29.6835 0002356  94.4398 265.6998 13.10372542213615
ONEWEB-0415             
1 51624U 22012C   26201.07273744 -.00000035  00000+0 -13644-3 0  9990
2 51624  87.8818  29.7119 0002120  85.4549 274.6820 13.10369796213593
ONEWEB-0416             
1 51625U 22012D   26201.08460822 -.00000540  00000+0 -15846-2 0  9993
2 51625  87.8812  29.7261 0002136  83.4260 276.7111 13.10373289213634
ONEWEB-0422             
1 51626U 22012E   26201.18369610 -.00000042  00000+0 -14245-3 0  9998
2 51626  87.9158 359.2968 0002022 112.6413 247.4933 13.17647918218152
ONEWEB-0423             
1 51627U 22012F   26201.17695053 -.00000021  00000+0 -86413-4 0  9995
2 51627  87.9151 359.3015 0001758  92.9553 267.1779 13.17647910218047
ONEWEB-0425             
1 51628U 22012G   26201.24755047 -.00004786  00000+0 -13761-1 0  9999
2 51628  87.8812  29.6774 0001612  78.6372 281.4936 13.10336642213655
ONEWEB-0428             
1 51629U 22012H   26201.22714221 -.00000102  00000+0 -32889-3 0  9999
2 51629  87.8810  29.6886 0001811  89.2537 270.8798 13.10372272213613
ONEWEB-0431             
1 51630U 22012J   26201.27282563  .00000441  00000+0  12270-2 0  9990
2 51630  87.8823  29.6724 0002415  94.5214 265.6190 13.10374868213679
ONEWEB-0434             
1 51631U 22012K   26201.02197055 -.00000512  00000+0 -15040-2 0  9994
2 51631  87.8825  29.7487 0001395  71.5979 288.5300 13.10376485213627
