{"fetched_at":"2026-07-20T18:28:52.300Z","source":"https://celestrak.org/NORAD/elements/gp.php?GROUP=oneweb&FORMAT=JSON","constellation":"oneweb","records":[{"OBJECT_NAME":"ONEWEB-0427","OBJECT_ID":"2021-132AG","EPOCH":"2026-07-20T01:19:54.816384","CLASSIFICATION_TYPE":"U","MEAN_MOTION":13.18686815,"ECCENTRICITY":0.00018021,"INCLINATION":87.9203,"RA_OF_ASC_NODE":328.9008,"ARG_OF_PERICENTER":93.3943,"MEAN_ANOMALY":266.7395,"EPHEMERIS_TYPE":0,"NORAD_CAT_ID":50499,"ELEMENT_SET_NO":999,"REV_AT_EPOCH":22594,"BSTAR":0.000003662727,"MEAN_MOTION_DOT":1.4e-7,"MEAN_MOTION_DDOT":0},{"OBJECT_NAME":"ONEWEB-0429","OBJECT_ID":"2021-132AH","EPOCH":"2026-07-19T21:21:56.825856","CLASSIFICATION_TYPE":"U","MEAN_MOTION":13.18685057,"ECCENTRICITY":0.00019682,"INCLINATION":87.9196,"RA_OF_ASC_NODE":328.9552,"ARG_OF_PERICENTER":103.4451,"MEAN_ANOMALY":256.69,"EPHEMERIS_TYPE":0,"NORAD_CAT_ID":50500,"ELEMENT_SET_NO":999,"REV_AT_EPOCH":22589,"BSTAR":-0.00033661647,"MEAN_MOTION_DOT":-0.0000012,"MEAN_MOTION_DDOT":0},{"OBJECT_NAME":"ONEWEB-0430","OBJECT_ID":"2021-132AJ","EPOCH":"2026-07-19T19:15:41.021568","CLASSIFICATION_TYPE":"U","MEAN_MOTION":13.18685026,"ECCENTRICITY":0.00021627,"INCLINATION":87.9195,"RA_OF_ASC_NODE":328.9715,"ARG_OF_PERICENTER":103.2444,"MEAN_ANOMALY":256.893,"EPHEMERIS_TYPE":0,"NORAD_CAT_ID":50501,"ELEMENT_SET_NO":999,"REV_AT_EPOCH":22592,"BSTAR":-0.00086345884,"MEAN_MOTION_DOT":-0.00000327,"MEAN_MOTION_DDOT":0},{"OBJECT_NAME":"ONEWEB-0432","OBJECT_ID":"2021-132AK","EPOCH":"2026-07-20T07:36:04.075776","CLASSIFICATION_TYPE":"U","MEAN_MOTION":13.18686452,"ECCENTRICITY":0.00023417,"INCLINATION":87.9201,"RA_OF_ASC_NODE":328.8561,"ARG_OF_PERICENTER":95.8813,"MEAN_ANOMALY":264.2586,"EPHEMERIS_TYPE":0,"NORAD_CAT_ID":50502,"ELEMENT_SET_NO":999,"REV_AT_EPOCH":22594,"BSTAR":0.00021723471,"MEAN_MOTION_DOT":9.9e-7,"MEAN_MOTION_DDOT":0},{"OBJECT_NAME":"ONEWEB-0440","OBJECT_ID":"2021-132AL","EPOCH":"2026-07-20T06:40:24.320928","CLASSIFICATION_TYPE":"U","MEAN_MOTION":13.18685876,"ECCENTRICITY":0.00017958,"INCLINATION":87.9204,"RA_OF_ASC_NODE":328.8753,"ARG_OF_PERICENTER":109.4081,"MEAN_ANOMALY":250.7246,"EPHEMERIS_TYPE":0,"NORAD_CAT_ID":50503,"ELEMENT_SET_NO":999,"REV_AT_EPOCH":22593,"BSTAR":-0.00016782273,"MEAN_MOTION_DOT":-5.3e-7,"MEAN_MOTION_DDOT":0},{"OBJECT_NAME":"ONEWEB-0450","OBJECT_ID":"2021-132AM","EPOCH":"2026-07-19T21:24:34.949952","CLASSIFICATION_TYPE":"U","MEAN_MOTION":13.18686705,"ECCENTRICITY":0.00020504,"INCLINATION":87.9196,"RA_OF_ASC_NODE":328.9536,"ARG_OF_PERICENTER":104.5586,"MEAN_ANOMALY":255.5774,"EPHEMERIS_TYPE":0,"NORAD_CAT_ID":50504,"ELEMENT_SET_NO":999,"REV_AT_EPOCH":22591,"BSTAR":-0.000034314676,"MEAN_MOTION_DOT":-1e-8,"MEAN_MOTION_DDOT":0},{"OBJECT_NAME":"ONEWEB-0410","OBJECT_ID":"2022-012A","EPOCH":"2026-07-20T04:09:56.350368","CLASSIFICATION_TYPE":"U","MEAN_MOTION":13.17647551,"ECCENTRICITY":0.00014311,"INCLINATION":87.9162,"RA_OF_ASC_NODE":359.2986,"ARG_OF_PERICENTER":49.1689,"MEAN_ANOMALY":310.9566,"EPHEMERIS_TYPE":0,"NORAD_CAT_ID":51622,"ELEMENT_SET_NO":999,"REV_AT_EPOCH":21804,"BSTAR":-0.00045380292,"MEAN_MOTION_DOT":-0.00000163,"MEAN_MOTION_DDOT":0},{"OBJECT_NAME":"ONEWEB-0411","OBJECT_ID":"2022-012B","EPOCH":"2026-07-20T05:29:32.024832","CLASSIFICATION_TYPE":"U","MEAN_MOTION":13.10372542,"ECCENTRICITY":0.00023568,"INCLINATION":87.8821,"RA_OF_ASC_NODE":29.6835,"ARG_OF_PERICENTER":94.4398,"MEAN_ANOMALY":265.6998,"EPHEMERIS_TYPE":0,"NORAD_CAT_ID":51623,"ELEMENT_SET_NO":999,"REV_AT_EPOCH":21361,"BSTAR":-0.00038110628,"MEAN_MOTION_DOT":-0.0000012,"MEAN_MOTION_DDOT":0},{"OBJECT_NAME":"ONEWEB-0415","OBJECT_ID":"2022-012C","EPOCH":"2026-07-20T01:44:44.514816","CLASSIFICATION_TYPE":"U","MEAN_MOTION":13.10369796,"ECCENTRICITY":0.00021208,"INCLINATION":87.8818,"RA_OF_ASC_NODE":29.7119,"ARG_OF_PERICENTER":85.4549,"MEAN_ANOMALY":274.682,"EPHEMERIS_TYPE":0,"NORAD_CAT_ID":51624,"ELEMENT_SET_NO":999,"REV_AT_EPOCH":21359,"BSTAR":-0.0001364367,"MEAN_MOTION_DOT":-3.5e-7,"MEAN_MOTION_DDOT":0},{"OBJECT_NAME":"ONEWEB-0416","OBJECT_ID":"2022-012D","EPOCH":"2026-07-20T02:01:50.150208","CLASSIFICATION_TYPE":"U","MEAN_MOTION":13.10373289,"ECCENTRICITY":0.00021369,"INCLINATION":87.8812,"RA_OF_ASC_NODE":29.7261,"ARG_OF_PERICENTER":83.426,"MEAN_ANOMALY":276.7111,"EPHEMERIS_TYPE":0,"NORAD_CAT_ID":51625,"ELEMENT_SET_NO":999,"REV_AT_EPOCH":21363,"BSTAR":-0.001584572,"MEAN_MOTION_DOT":-0.0000054,"MEAN_MOTION_DDOT":0},{"OBJECT_NAME":"ONEWEB-0422","OBJECT_ID":"2022-012E","EPOCH":"2026-07-20T04:24:31.343040","CLASSIFICATION_TYPE":"U","MEAN_MOTION":13.17647918,"ECCENTRICITY":0.00020222,"INCLINATION":87.9158,"RA_OF_ASC_NODE":359.2968,"ARG_OF_PERICENTER":112.6413,"MEAN_ANOMALY":247.4933,"EPHEMERIS_TYPE":0,"NORAD_CAT_ID":51626,"ELEMENT_SET_NO":999,"REV_AT_EPOCH":21815,"BSTAR":-0.00014245272,"MEAN_MOTION_DOT":-4.2e-7,"MEAN_MOTION_DDOT":0},{"OBJECT_NAME":"ONEWEB-0423","OBJECT_ID":"2022-012F","EPOCH":"2026-07-20T04:14:48.525792","CLASSIFICATION_TYPE":"U","MEAN_MOTION":13.1764791,"ECCENTRICITY":0.00017586,"INCLINATION":87.9151,"RA_OF_ASC_NODE":359.3015,"ARG_OF_PERICENTER":92.9553,"MEAN_ANOMALY":267.1779,"EPHEMERIS_TYPE":0,"NORAD_CAT_ID":51627,"ELEMENT_SET_NO":999,"REV_AT_EPOCH":21804,"BSTAR":-0.000086413387,"MEAN_MOTION_DOT":-2.1e-7,"MEAN_MOTION_DDOT":0},{"OBJECT_NAME":"ONEWEB-0425","OBJECT_ID":"2022-012G","EPOCH":"2026-07-20T05:56:28.360608","CLASSIFICATION_TYPE":"U","MEAN_MOTION":13.10336642,"ECCENTRICITY":0.00016121,"INCLINATION":87.8812,"RA_OF_ASC_NODE":29.6774,"ARG_OF_PERICENTER":78.6372,"MEAN_ANOMALY":281.4936,"EPHEMERIS_TYPE":0,"NORAD_CAT_ID":51628,"ELEMENT_SET_NO":999,"REV_AT_EPOCH":21365,"BSTAR":-0.013760776,"MEAN_MOTION_DOT":-0.00004786,"MEAN_MOTION_DDOT":0},{"OBJECT_NAME":"ONEWEB-0428","OBJECT_ID":"2022-012H","EPOCH":"2026-07-20T05:27:05.086944","CLASSIFICATION_TYPE":"U","MEAN_MOTION":13.10372272,"ECCENTRICITY":0.0001811,"INCLINATION":87.881,"RA_OF_ASC_NODE":29.6886,"ARG_OF_PERICENTER":89.2537,"MEAN_ANOMALY":270.8798,"EPHEMERIS_TYPE":0,"NORAD_CAT_ID":51629,"ELEMENT_SET_NO":999,"REV_AT_EPOCH":21361,"BSTAR":-0.00032888849,"MEAN_MOTION_DOT":-0.00000102,"MEAN_MOTION_DDOT":0},{"OBJECT_NAME":"ONEWEB-0431","OBJECT_ID":"2022-012J","EPOCH":"2026-07-20T06:32:52.134432","CLASSIFICATION_TYPE":"U","MEAN_MOTION":13.10374868,"ECCENTRICITY":0.00024156,"INCLINATION":87.8823,"RA_OF_ASC_NODE":29.6724,"ARG_OF_PERICENTER":94.5214,"MEAN_ANOMALY":265.619,"EPHEMERIS_TYPE":0,"NORAD_CAT_ID":51630,"ELEMENT_SET_NO":999,"REV_AT_EPOCH":21367,"BSTAR":0.0012269758,"MEAN_MOTION_DOT":0.00000441,"MEAN_MOTION_DDOT":0},{"OBJECT_NAME":"ONEWEB-0434","OBJECT_ID":"2022-012K","EPOCH":"2026-07-20T00:31:38.255520","CLASSIFICATION_TYPE":"U","MEAN_MOTION":13.10376485,"ECCENTRICITY":0.00013957,"INCLINATION":87.8825,"RA_OF_ASC_NODE":29.7487,"ARG_OF_PERICENTER":71.5979,"MEAN_ANOMALY":288.53,"EPHEMERIS_TYPE":0,"NORAD_CAT_ID":51631,"ELEMENT_SET_NO":999,"REV_AT_EPOCH":21362,"BSTAR":-0.0015039654,"MEAN_MOTION_DOT":-0.00000512,"MEAN_MOTION_DDOT":0}]}
